#cP2010  5 10  0  0  0.00000000      96 ORBIT IGS05 HLM  IGS
## 1583  86400.00000000   900.00000000 55326 0.0000000000000
+   31   G01G02G03G04G05G06G07G08G09G10G11G12G13G14G15G16G17
+        G18G19G20G21G22G23G24G26G27G28G29G30G31G32  0  0  0
+          0  0  0  0  0  0  0  0  0  0  0  0  0  0  0  0  0
+          0  0  0  0  0  0  0  0  0  0  0  0  0  0  0  0  0
+          0  0  0  0  0  0  0  0  0  0  0  0  0  0  0  0  0
++         5  2  2  2  2  2  2  3  2  2  2  2  2  3  2  2  2
++         2  2  2  2  2  2  2  2  2  2  2  2  2  2  0  0  0
++         0  0  0  0  0  0  0  0  0  0  0  0  0  0  0  0  0
++         0  0  0  0  0  0  0  0  0  0  0  0  0  0  0  0  0
++         0  0  0  0  0  0  0  0  0  0  0  0  0  0  0  0  0
%c G  cc GPS ccc cccc cccc cccc cccc ccccc ccccc ccccc ccccc
%c cc cc ccc ccc cccc cccc cccc cccc ccccc ccccc ccccc ccccc
%f  1.2500000  1.025000000  0.00000000000  0.000000000000000
%f  0.0000000  0.000000000  0.00000000000  0.000000000000000
%i    0    0    0    0      0      0      0      0         0
%i    0    0    0    0      0      0      0      0         0
/* FINAL ORBIT COMBINATION FROM WEIGHTED AVERAGE OF:        
/* cod emr esa gfz grg jpl mit ngs sio                      
/* REFERENCED TO IGS TIME (IGST) AND TO WEIGHTED MEAN POLE: 
/* PCV:IGS05_1581 OL/AL:FES2004  NONE     Y  ORB:CMB CLK:CMB
*  2010  5 10  4 30  0.00000000
PG01    690.668043  16464.790099 -20927.472622 999999.999999
PG02 -13926.542742 -13057.189189 -18670.936065    254.264234  5  7  7 122       
PG03  24856.548879   9826.596771    691.467524    552.932820  5  7  2 118       
PG04  -6696.221058 -23937.962346  -9003.691795     78.548626  7  6  7 119       
PG05 -20228.916158  -2026.677362 -17155.376792     -2.702459  6  7  6 111       
PG06  23027.549875  13218.653684  -1963.266701    644.211647  5  6  4 131       
PG07   6863.557524 -23466.363806 -10181.453499     -0.316717  5  9  6  90       
PG08    291.075222 -26181.067581   2113.098176      5.328178  7  6  7  83       
PG09 -13974.589548   6167.072888  21182.201965      5.652777  7  8  7 138       
PG10 -13146.224396  -9830.695544 -21122.564793    -42.223288  6  5  8  89       
PG11  13558.848353 -11284.978346  19518.736730    -61.597958  5  7  6 122       
PG12 -23663.483334  11623.117426   2494.369529   -117.121811  8 10  6 118       
PG13   9545.847165 -11119.261151 -22290.724290    304.602292  8  9  6 132       
PG14  10506.281838  18896.204725  15650.325788     43.802096  7  9  6 124       
PG15 -23963.882613  -4422.660221  10722.475429   -275.215100  1  8  9 120       
PG16  16007.020660   6840.739134 -20097.895725    -69.928718  6  6  6 102       
PG17  -9759.530751 -18958.639111  16069.876574    149.775196  6  7  4 113       
PG18 -13047.265767  18681.471753  13591.838442     67.257309  7 10  6  69       
PG19  23221.173583   5482.652049  12022.719576    -33.835020  4  8  5 126       
PG20  22448.936654 -14141.194244     -4.189168     56.387583  5  9  5  86       
PG21  -4449.479386  25110.792699  -5793.975849    -59.088586  7  9  6 139       
PG22  -1172.717708  17528.463301  20057.708120    172.463662  5 10  5  98       
PG23  17607.591782  -5187.745174 -19337.603298    371.395207  8  7  2 138       
PG24    124.504327  26649.794178   1823.803536    286.012703  7  7  8 117       
PG26 -18446.581085   2429.916710  18561.453551    -49.857080  4  6  6  95       
PG27 -15013.166540   2262.853979  22471.294255    150.581053  6  8  7 115       
PG28   3729.740756 -17565.392867  19949.876749    -16.577101  3  8  4 109       
PG29 -10053.216275  11571.298650 -21593.680549    118.793222  8  7  5  75       
PG30 -17737.025588  18210.630002  -7992.040076    241.239807  4  5  3  88       
PG31   7427.035261  22878.652967 -10856.825862    -37.434599  6  7  9 116       
PG32  24642.857933  -5588.428285   7942.878717     32.852083  6  8  7  86       
*  2010  5 10  4 45  0.00000000
PG01  -1308.171322  17633.466332 -19902.795530 999999.999999
PG02 -13890.276170 -15097.272182 -17133.747983    254.267372  4  8  7 123       
PG03  24703.567586  10114.939113  -2073.735932    552.939923  5  7  3 121       
PG04  -6410.435167 -24819.594652  -6359.693645     78.556275  7  6  7 113       
PG05 -18576.866825  -3247.118864 -18755.499388     -2.703173  6  7  6 125       
PG06  22529.141182  13337.762541  -4722.063755    644.201702  5  6  4 110       
PG07   7113.290813 -22166.544353 -12644.065989     -0.317074  5  9  6  84       
PG08    496.023610 -26250.394185   -836.787771      5.330107  7  6  7  95       
PG09 -14184.488547   3613.905502  21620.809346      5.654925  7  8  7 136       
PG10 -11102.112178 -11099.780422 -21634.386261    -42.223367  6  4  7  93       
PG11  14314.673167  -9047.487420  20159.308148    -61.600162  4  7  6 120       
PG12 -23410.004812  11189.808604   5332.054824   -117.118265  7 10  6 115       
PG13  11655.162403  -9795.685792 -21904.928167    304.601853  8  9  5 127       
PG14   8839.300446  18045.984406  17571.079335     43.805851  7  9  6 128       
PG15 -24817.489631  -5121.756021   8172.369442   -275.210128  3  8  9 119       
PG16  14016.572718   8100.701151 -21065.753201    -69.931975  6  6  6  97       
PG17  -8012.135564 -18158.624219  17852.935063    149.777175  6  7  4 114       
PG18 -14394.684956  19164.669131  11287.851464     67.259739  7 10  6  53       
PG19  24144.149829   6309.628241   9565.269460    -33.837426  4  8  5 128       
PG20  22485.844252 -13773.620484   2801.599963     56.386731  5  9  5  77       
PG21  -4840.160514  24247.918474  -8463.184653    -59.091397  6  9  6 140       
PG22  -3141.239487  18537.937671  18887.028826    172.462748  5  9  5  85       
PG23  19415.951680  -4095.701703 -17834.775958    371.393826  8  7  4 133       
PG24   -142.924013  26684.769670   -994.140211    286.015329  6  7  7 121       
PG26 -20196.557689   1249.735291  16865.692861    -49.861936  2  5  7 105       
PG27 -15241.194047   -143.361545  22443.321686    150.583023  6  8  6 102       
PG28   5616.667174 -18534.193352  18521.920803    -16.576416  3  9  4 106       
PG29 -12177.159536  10319.112036 -21128.704783    118.795731  7  7  6 104       
PG30 -18469.640299  18409.485807  -5278.905966    241.243755  4  5  4 107       
PG31   7263.900465  24008.688670  -8249.700063    -37.432573  5  8  9 104       
PG32  23849.281503  -4893.894683  10543.338881     32.844372  7  8  7  70       
*  2010  5 10  5  0  0.00000000
PG01  -3134.940187  18827.767073 -18538.049638 999999.999999
PG02 -13934.550901 -16946.567059 -15307.231450    254.270504  2  8  7 116       
PG03  24273.360529  10314.985049  -4804.124812    552.944662  5  7  3 111       
PG04  -6136.634739 -25409.809188  -3604.402174     78.564343  6  5  7 126       
PG05 -16858.251559  -4647.348876 -20034.220121     -2.704059  6  8  6 114       
PG06  21751.231851  13369.405670  -7399.963803    644.191856  5  7  4 128       
PG07   7457.434345 -20616.213419 -14887.401124     -0.317587  6  9  6  63       
PG08    706.671398 -25992.390523  -3771.791728      5.330582  7  7  7  91       
PG09 -14534.683927   1047.570989  21667.872443      5.655945  7  8  7 133       
PG10  -9093.270681 -12495.376171 -21780.992525    -42.223508  6  4  6  93       
PG11  15174.001833  -6795.027400  20443.765404    -61.602214  4  7  6 122       
PG12 -22920.349445  10561.409032   8077.235529   -117.114363  7 10  6 124       
PG13  13780.298232  -8625.991342 -21147.111257    304.601416  8  8  5 127       
PG14   6948.891298  17200.904030  19193.954027     43.810077  7  9  5 122       
PG15 -25434.578579  -5658.618830   5482.638757   -275.205230  5  8  9 125       
PG16  12021.135178   9518.027335 -21671.441449    -69.935416  7  6  6  86       
PG17  -6058.965765 -17371.812769  19333.410123    149.779268  6  7  3 124       
PG18 -15496.438569  19558.561246   8788.160374     67.261659  7  9  6  90       
PG19  24858.996455   6949.385399   6946.213365    -33.839913  4  8  5 130       
PG20  22290.894701 -13216.418420   5558.922270     56.386470  5  9  5  79       
PG21  -5295.848115  23106.450534 -10979.506963    -59.093353  6  8  6 138       
PG22  -4936.275412  19558.353600  17394.630021    172.461772  5  9  6  55       
PG23  21109.647478  -3181.813821 -16029.144866    371.392659  7  6  5 141       
PG24   -423.765219  26418.086365  -3795.236327    286.017383  6  8  7 122       
PG26 -21818.453965    274.420853  14872.413270    -49.866183  2  5  7  98       
PG27 -15602.014032  -2509.180011  22052.925144    150.585546  6  8  6 102       
PG28   7305.890490 -19506.833677  16783.640403    -16.575411  3  9  3 106       
PG29 -14296.932579   9210.838217 -20296.866410    118.798285  7  7  6 107       
PG30 -18949.219976  18451.630098  -2475.421235    241.247174  4  6  3 106       
PG31   7133.549844  24840.282450  -5498.065689    -37.430369  5  8  9 116       
PG32  22849.205450  -4017.888223  12961.781292     32.836526  7  8  7  85       
EOF
